OBJECT_NAME,OBJECT_ID,EPOCH,MEAN_MOTION,ECCENTRICITY,INCLINATION,RA_OF_ASC_NODE,ARG_OF_PERICENTER,MEAN_ANOMALY,EPHEMERIS_TYPE,CLASSIFICATION_TYPE,NORAD_CAT_ID,ELEMENT_SET_NO,REV_AT_EPOCH,BSTAR,MEAN_MOTION_DOT,MEAN_MOTION_DDOT
STARLINK-37651,2026-123A,2026-06-30T12:16:25.638240,15.80998863,.000294,53.1561,175.0288,168.1568,191.9524,0,U,69353,999,414,.12304E-2,.250807E-2,0
STARLINK-37652,2026-123B,2026-07-04T01:16:06.046464,15.80928288,.00014186,53.1579,157.2955,82.3506,277.7678,0,U,69354,999,470,.10115755E-2,.204266E-2,0
STARLINK-37593,2026-123C,2026-07-03T22:12:46.583424,15.81009918,.00015722,53.1576,157.9217,115.0999,245.0187,0,U,69355,999,468,.15423635E-2,.317154E-2,0
STARLINK-37597,2026-123D,2026-07-04T05:08:45.335904,15.75330614,.00009615,53.1599,156.8961,118.1193,241.9924,0,U,69356,999,472,.14321873E-2,.225758E-2,0
STARLINK-37598,2026-123E,2026-07-04T04:29:04.704000,15.75298634,.00009257,53.1604,156.7127,87.6248,272.4878,0,U,69357,999,472,.12821304E-2,.201162E-2,0
STARLINK-37602,2026-123F,2026-07-03T22:10:42.233088,15.75358915,.0001689,53.1571,158.6522,103.4168,256.7040,0,U,69358,999,467,.15606041E-2,.246988E-2,0
STARLINK-37600,2026-123G,2026-07-04T04:10:04.370016,15.75311210,.00015766,53.1573,157.3607,138.0031,222.1111,0,U,69359,999,471,.12112075E-2,.189848E-2,0
STARLINK-37599,2026-123H,2026-07-03T09:44:11.052672,15.80905143,.00008473,53.1570,160.3614,85.7166,274.3954,0,U,69360,999,460,.13718979E-2,.279432E-2,0
STARLINK-37039,2026-123J,2026-07-04T05:08:20.546880,15.77027442,.00068874,53.1605,156.8922,216.7051,143.3499,0,U,69361,999,472,.11838845E-1,.2256268E-1,0
STARLINK-37040,2026-123K,2026-07-04T05:06:57.112992,15.81011077,.00014839,53.1573,156.1447,94.5099,265.6093,0,U,69362,999,473,.15032304E-2,.308804E-2,0
STARLINK-37582,2026-123L,2026-07-03T21:51:33.609024,15.75402553,.00016547,53.1568,158.5601,117.4850,242.6339,0,U,69363,999,467,.23829356E-2,.384465E-2,0
STARLINK-37309,2026-123M,2026-07-04T00:00:02.999808,15.75204280,.00010135,53.1600,157.5356,92.5761,337.1520,0,U,69364,999,600,.20689181E-3,.31143E-3,0
STARLINK-37436,2026-123N,2026-07-03T09:04:23.471616,15.80938229,.00018661,53.1572,160.1748,352.3422,7.7572,0,U,69365,999,460,.12811195E-2,.260719E-2,0
STARLINK-37581,2026-123P,2026-07-03T12:11:51.320832,15.80933870,.00011892,53.1571,159.5660,73.5346,286.5807,0,U,69366,999,462,.92550698E-3,.186486E-2,0
STARLINK-37683,2026-123Q,2026-07-03T13:28:31.840896,15.75258485,.00010396,53.1563,159.9199,85.2943,274.8196,0,U,69367,999,462,.5973283E-3,.92003E-3,0
STARLINK-37687,2026-123R,2026-07-04T00:00:02.999808,15.80892967,.00011457,53.1570,157.0047,88.9667,238.5020,0,U,69368,999,586,.3254382E-5,-.56E-6,0
STARLINK-37631,2026-123S,2026-07-03T09:33:58.901760,15.75303037,.00012556,53.1596,160.3120,116.5495,243.5654,0,U,69369,999,460,.10714309E-2,.167353E-2,0
STARLINK-37673,2026-123T,2026-07-04T00:00:02.999808,15.75254607,.00012483,53.1602,157.5878,99.0403,304.8963,0,U,69370,999,591,-.15309961E-3,-.24057E-3,0
STARLINK-37645,2026-123U,2026-07-03T08:15:41.806368,15.75308140,.00013528,53.1581,160.6871,87.4328,272.6847,0,U,69371,999,459,.1307761E-2,.205385E-2,0
STARLINK-37688,2026-123V,2026-07-03T09:27:00.378432,15.75313088,.00019031,53.1601,160.2765,115.3183,244.8035,0,U,69372,999,460,.11745768E-2,.183975E-2,0
STARLINK-37685,2026-123W,2026-07-02T05:38:05.193312,15.80918305,.00013717,53.1576,165.8401,74.6897,285.4277,0,U,69373,999,442,.11346385E-2,.229781E-2,0
STARLINK-37632,2026-123X,2026-07-02T08:00:01.999008,15.80877133,.0001129,53.1573,165.3388,47.6212,158.0438,0,U,69374,999,559,-.1387E-4,-.3436E-4,0
STARLINK-37454,2026-123Y,2026-07-02T05:35:26.465280,15.80944402,.0001323,53.1575,165.8269,94.6820,265.4354,0,U,69375,999,442,.13687E-2,.279266E-2,0
STARLINK-37485,2026-123Z,2026-07-04T04:00:03.999744,15.75253137,.00011487,53.1575,156.5422,96.7668,277.7927,0,U,69376,999,603,-.27387606E-3,-.42437E-3,0
STARLINK-37439,2026-123AA,2026-07-04T04:26:13.533504,15.81000202,.00009906,53.1570,155.9519,86.3609,273.7527,0,U,69377,999,473,.1212706E-2,.24707E-2,0
STARLINK-37376,2026-123AB,2026-07-03T22:17:05.881056,15.75323851,.00010345,53.1608,157.9377,91.6152,268.4987,0,U,69378,999,468,.16652074E-2,.26371E-2,0
STARLINK-37383,2026-123AC,2026-07-03T22:56:38.276448,15.75364964,.0001693,53.1597,157.3779,114.6173,245.5024,0,U,69379,999,469,.21527618E-2,.345062E-2,0
STARLINK-37411,2026-123AD,2026-07-03T22:24:02.665152,15.81014870,.00012985,53.1573,157.2275,116.5428,243.5728,0,U,69380,999,469,.1705209E-2,.352245E-2,0
STARLINK-37427,2026-123AE,2026-07-04T04:22:16.454496,15.81119250,.00013073,53.1584,155.9322,119.5778,240.5375,0,U,69381,999,473,.16564506E-2,.343448E-2,0
QIANFAN-165,2026-124A,2026-07-03T17:22:00.034464,14.08816970,.00077525,88.9980,0.1724,105.7496,254.4543,0,U,69382,999,415,-.1204827E+1,-.1934138E-1,0
