STARLINK-37651          
1 69353U 26123A   26181.51140785  .00250807  00000+0  12304-2 0  9992
2 69353  53.1561 175.0288 0002940 168.1568 191.9524 15.80998863  4147
STARLINK-37652          
1 69354U 26123B   26185.05284776  .00204266  00000+0  10116-2 0  9992
2 69354  53.1579 157.2955 0001418  82.3506 277.7678 15.80928288  4707
STARLINK-37593          
1 69355U 26123C   26184.92553916  .00317154  00000+0  15424-2 0  9991
2 69355  53.1576 157.9217 0001572 115.0999 245.0187 15.81009918  4685
STARLINK-37597          
1 69356U 26123D   26185.21441361  .00225758  00000+0  14322-2 0  9999
2 69356  53.1599 156.8961 0000961 118.1193 241.9924 15.75330614  4728
STARLINK-37598          
1 69357U 26123E   26185.18686000  .00201162  00000+0  12821-2 0  9992
2 69357  53.1604 156.7127 0000925  87.6248 272.4878 15.75298634  4722
STARLINK-37602          
1 69358U 26123F   26184.92409992  .00246988  00000+0  15606-2 0  9996
2 69358  53.1571 158.6522 0001689 103.4168 256.7040 15.75358915  4671
STARLINK-37600          
1 69359U 26123G   26185.17366169  .00189848  00000+0  12112-2 0  9993
2 69359  53.1573 157.3607 0001576 138.0031 222.1111 15.75311210  4710
STARLINK-37599          
1 69360U 26123H   26184.40568348  .00279432  00000+0  13719-2 0  9996
2 69360  53.1570 160.3614 0000847  85.7166 274.3954 15.80905143  4600
STARLINK-37039          
1 69361U 26123J   26185.21412670  .02256268  00000+0  11839-1 0  9997
2 69361  53.1605 156.8922 0006887 216.7051 143.3499 15.77027442  4726
STARLINK-37040          
1 69362U 26123K   26185.21316103  .00308804  00000+0  15032-2 0  9994
2 69362  53.1573 156.1447 0001483  94.5099 265.6093 15.81011077  4738
STARLINK-37582          
1 69363U 26123L   26184.91080566  .00384465  00000+0  23829-2 0  9992
2 69363  53.1568 158.5601 0001654 117.4850 242.6339 15.75402553  4678
STARLINK-37309          
1 69364U 26123M   26185.00003472  .00031143  00000+0  20689-3 0  9999
2 69364  53.1600 157.5356 0001013  92.5761 337.1520 15.75204280  6003
STARLINK-37436          
1 69365U 26123N   26184.37804944  .00260719  00000+0  12811-2 0  9992
2 69365  53.1572 160.1748 0001866 352.3422   7.7572 15.80938229  4608
STARLINK-37581          
1 69366U 26123P   26184.50823288  .00186486  00000+0  92551-3 0  9998
2 69366  53.1571 159.5660 0001189  73.5346 286.5807 15.80933870  4625
STARLINK-37683          
1 69367U 26123Q   26184.56147964  .00092003  00000+0  59733-3 0  9991
2 69367  53.1563 159.9199 0001039  85.2943 274.8196 15.75258485  4622
STARLINK-37687          
1 69368U 26123R   26185.00003472 -.00000056  00000+0  32544-5 0  9998
2 69368  53.1570 157.0047 0001145  88.9667 238.5020 15.80892967  5868
STARLINK-37631          
1 69369U 26123S   26184.39859840  .00167353  00000+0  10714-2 0  9993
2 69369  53.1596 160.3120 0001255 116.5495 243.5654 15.75303037  4604
STARLINK-37673          
1 69370U 26123T   26185.00003472 -.00024057  00000+0 -15310-3 0  9999
2 69370  53.1602 157.5878 0001248  99.0403 304.8963 15.75254607  5915
STARLINK-37645          
1 69371U 26123U   26184.34423387  .00205385  00000+0  13078-2 0  9998
2 69371  53.1581 160.6871 0001352  87.4328 272.6847 15.75308140  4591
STARLINK-37688          
1 69372U 26123V   26184.39375438  .00183975  00000+0  11746-2 0  9997
2 69372  53.1601 160.2765 0001903 115.3183 244.8035 15.75313088  4604
STARLINK-37685          
1 69373U 26123W   26183.23478233  .00229781  00000+0  11346-2 0  9999
2 69373  53.1576 165.8401 0001371  74.6897 285.4277 15.80918305  4420
STARLINK-37632          
1 69374U 26123X   26183.33335647 -.00003436  00000+0 -13870-4 0  9997
2 69374  53.1573 165.3388 0001129  47.6212 158.0438 15.80877133  5595
STARLINK-37454          
1 69375U 26123Y   26183.23294520  .00279266  00000+0  13687-2 0  9999
2 69375  53.1575 165.8269 0001323  94.6820 265.4354 15.80944402  4429
STARLINK-37485          
1 69376U 26123Z   26185.16671296 -.00042437  00000+0 -27388-3 0  9997
2 69376  53.1575 156.5422 0001148  96.7668 277.7927 15.75253137  6039
STARLINK-37439          
1 69377U 26123AA  26185.18487886  .00247070  00000+0  12127-2 0  9992
2 69377  53.1570 155.9519 0000990  86.3609 273.7527 15.81000202  4736
STARLINK-37376          
1 69378U 26123AB  26184.92854029  .00263710  00000+0  16652-2 0  9997
2 69378  53.1608 157.9377 0001034  91.6152 268.4987 15.75323851  4681
STARLINK-37383          
1 69379U 26123AC  26184.95599857  .00345062  00000+0  21528-2 0  9995
2 69379  53.1597 157.3779 0001693 114.6173 245.5024 15.75364964  4698
STARLINK-37411          
1 69380U 26123AD  26184.93336418  .00352245  00000+0  17052-2 0  9995
2 69380  53.1573 157.2275 0001298 116.5428 243.5728 15.81014870  4693
STARLINK-37427          
1 69381U 26123AE  26185.18213489  .00343448  00000+0  16565-2 0  9999
2 69381  53.1584 155.9322 0001307 119.5778 240.5375 15.81119250  4734
QIANFAN-165             
1 69382U 26124A   26184.72361151 -.01934138  00000+0 -12048+1 0  9995
2 69382  88.9980   0.1724 0007752 105.7496 254.4543 14.08816970  4150
